[{"OBJECT_NAME":"S-NET B","OBJECT_ID":"2018-014H","EPOCH":"2026-03-09T22:45:17.995680","MEAN_MOTION":15.15604995,"ECCENTRICITY":0.0009334,"INCLINATION":97.5436,"RA_OF_ASC_NODE":334.3767,"ARG_OF_PERICENTER":8.7272,"MEAN_ANOMALY":351.4121,"EPHEMERIS_TYPE":0,"CLASSIFICATION_TYPE":"U","NORAD_CAT_ID":43187,"ELEMENT_SET_NO":999,"REV_AT_EPOCH":44372,"BSTAR":0.00040571081,"MEAN_MOTION_DOT":7.649e-5,"MEAN_MOTION_DDOT":0},{"OBJECT_NAME":"STARLINK-6176","OBJECT_ID":"2023-061Q","EPOCH":"2026-03-09T22:00:01.999584","MEAN_MOTION":15.11969207,"ECCENTRICITY":0.00020139,"INCLINATION":42.9997,"RA_OF_ASC_NODE":195.989,"ARG_OF_PERICENTER":263.5887,"MEAN_ANOMALY":20.4888,"EPHEMERIS_TYPE":0,"CLASSIFICATION_TYPE":"U","NORAD_CAT_ID":56388,"ELEMENT_SET_NO":999,"REV_AT_EPOCH":577,"BSTAR":0.004141035,"MEAN_MOTION_DOT":0.00072813,"MEAN_MOTION_DDOT":0}]
